[
  {
    "OBJECT_NAME": "SKYSAT-B",
    "OBJECT_ID": "2014-037D",
    "EPOCH": "2025-05-24T18:59:38.523840",
    "MEAN_MOTION": 14.86483706,
    "ECCENTRICITY": 0.0007238,
    "INCLINATION": 98.3423,
    "RA_OF_ASC_NODE": 78.3225,
    "ARG_OF_PERICENTER": 95.3922,
    "MEAN_ANOMALY": 264.8118,
    "EPHEMERIS_TYPE": 0,
    "CLASSIFICATION_TYPE": "U",
    "NORAD_CAT_ID": 40072,
    "ELEMENT_SET_NO": 999,
    "REV_AT_EPOCH": 58831,
    "BSTAR": 0.00013417,
    "MEAN_MOTION_DOT": 1.127e-05,
    "MEAN_MOTION_DDOT": 0
  },
  {
    "OBJECT_NAME": "WORLDVIEW-3 (WV-3)",
    "OBJECT_ID": "2014-048A",
    "EPOCH": "2025-05-24T12:32:32.939808",
    "MEAN_MOTION": 14.85314881,
    "ECCENTRICITY": 0.0006461,
    "INCLINATION": 97.8588,
    "RA_OF_ASC_NODE": 219.2155,
    "ARG_OF_PERICENTER": 147.3878,
    "MEAN_ANOMALY": 212.7737,
    "EPHEMERIS_TYPE": 0,
    "CLASSIFICATION_TYPE": "U",
    "NORAD_CAT_ID": 40115,
    "ELEMENT_SET_NO": 999,
    "REV_AT_EPOCH": 58422,
    "BSTAR": 0.00011369,
    "MEAN_MOTION_DOT": 9.24e-06,
    "MEAN_MOTION_DDOT": 0
  },
  {
    "OBJECT_NAME": "GAOFEN-2",
    "OBJECT_ID": "2014-049A",
    "EPOCH": "2025-05-24T20:25:24.555360",
    "MEAN_MOTION": 14.80478494,
    "ECCENTRICITY": 0.0005642,
    "INCLINATION": 98.0607,
    "RA_OF_ASC_NODE": 203.3771,
    "ARG_OF_PERICENTER": 52.5476,
    "MEAN_ANOMALY": 307.6248,
    "EPHEMERIS_TYPE": 0,
    "CLASSIFICATION_TYPE": "U",
    "NORAD_CAT_ID": 40118,
    "ELEMENT_SET_NO": 999,
    "REV_AT_EPOCH": 58178,
    "BSTAR": 0.00011963,
    "MEAN_MOTION_DOT": 8.62e-06,
    "MEAN_MOTION_DDOT": 0
  },
  {
    "OBJECT_NAME": "YAOGAN-21",
    "OBJECT_ID": "2014-053A",
    "EPOCH": "2025-05-24T20:56:14.843328",
    "MEAN_MOTION": 15.23450003,
    "ECCENTRICITY": 0.0013396,
    "INCLINATION": 97.2008,
    "RA_OF_ASC_NODE": 196.5312,
    "ARG_OF_PERICENTER": 70.5491,
    "MEAN_ANOMALY": 289.7192,
    "EPHEMERIS_TYPE": 0,
    "CLASSIFICATION_TYPE": "U",
    "NORAD_CAT_ID": 40143,
    "ELEMENT_SET_NO": 999,
    "REV_AT_EPOCH": 59584,
    "BSTAR": 0.00027297,
    "MEAN_MOTION_DOT": 6.453e-05,
    "MEAN_MOTION_DDOT": 0
  },
  {
    "OBJECT_NAME": "YAOGAN-22",
    "OBJECT_ID": "2014-063A",
    "EPOCH": "2025-05-24T09:50:12.196032",
    "MEAN_MOTION": 13.15510989,
    "ECCENTRICITY": 0.0006112,
    "INCLINATION": 100.7138,
    "RA_OF_ASC_NODE": 285.2625,
    "ARG_OF_PERICENTER": 350.8227,
    "MEAN_ANOMALY": 9.2771,
    "EPHEMERIS_TYPE": 0,
    "CLASSIFICATION_TYPE": "U",
    "NORAD_CAT_ID": 40275,
    "ELEMENT_SET_NO": 999,
    "REV_AT_EPOCH": 50869,
    "BSTAR": 0.00012809,
    "MEAN_MOTION_DOT": 2e-08,
    "MEAN_MOTION_DDOT": 0
  },
  {
    "OBJECT_NAME": "ASNARO",
    "OBJECT_ID": "2014-070A",
    "EPOCH": "2025-05-24T20:13:34.135680",
    "MEAN_MOTION": 15.19367154,
    "ECCENTRICITY": 0.0005099,
    "INCLINATION": 97.3796,
    "RA_OF_ASC_NODE": 225.4829,
    "ARG_OF_PERICENTER": 99.7278,
    "MEAN_ANOMALY": 260.4533,
    "EPHEMERIS_TYPE": 0,
    "CLASSIFICATION_TYPE": "U",
    "NORAD_CAT_ID": 40298,
    "ELEMENT_SET_NO": 999,
    "REV_AT_EPOCH": 58505,
    "BSTAR": 0.00041614,
    "MEAN_MOTION_DOT": 8.74e-05,
    "MEAN_MOTION_DDOT": 0
  },
  {
    "OBJECT_NAME": "YAOGAN-24",
    "OBJECT_ID": "2014-072A",
    "EPOCH": "2025-05-24T19:38:14.649504",
    "MEAN_MOTION": 14.76173265,
    "ECCENTRICITY": 0.0015437,
    "INCLINATION": 98.097,
    "RA_OF_ASC_NODE": 275.1657,
    "ARG_OF_PERICENTER": 75.253,
    "MEAN_ANOMALY": 285.0389,
    "EPHEMERIS_TYPE": 0,
    "CLASSIFICATION_TYPE": "U",
    "NORAD_CAT_ID": 40310,
    "ELEMENT_SET_NO": 999,
    "REV_AT_EPOCH": 56644,
    "BSTAR": 0.00010793,
    "MEAN_MOTION_DOT": 6.95e-06,
    "MEAN_MOTION_DDOT": 0
  },
  {
    "OBJECT_NAME": "CBERS 4",
    "OBJECT_ID": "2014-079A",
    "EPOCH": "2025-05-24T20:52:01.861536",
    "MEAN_MOTION": 14.35502718,
    "ECCENTRICITY": 0.0001861,
    "INCLINATION": 98.3541,
    "RA_OF_ASC_NODE": 209.4523,
    "ARG_OF_PERICENTER": 73.5212,
    "MEAN_ANOMALY": 286.6179,
    "EPHEMERIS_TYPE": 0,
    "CLASSIFICATION_TYPE": "U",
    "NORAD_CAT_ID": 40336,
    "ELEMENT_SET_NO": 999,
    "REV_AT_EPOCH": 54826,
    "BSTAR": 5.3835e-05,
    "MEAN_MOTION_DOT": 1.13e-06,
    "MEAN_MOTION_DDOT": 0
  },
  {
    "OBJECT_NAME": "YAOGAN-26",
    "OBJECT_ID": "2014-088A",
    "EPOCH": "2025-05-24T20:52:40.771776",
    "MEAN_MOTION": 15.32312696,
    "ECCENTRICITY": 0.0006806,
    "INCLINATION": 97.064,
    "RA_OF_ASC_NODE": 153.8773,
    "ARG_OF_PERICENTER": 36.4605,
    "MEAN_ANOMALY": 323.71,
    "EPHEMERIS_TYPE": 0,
    "CLASSIFICATION_TYPE": "U",
    "NORAD_CAT_ID": 40362,
    "ELEMENT_SET_NO": 999,
    "REV_AT_EPOCH": 57942,
    "BSTAR": 0.0003278,
    "MEAN_MOTION_DOT": 0.00010163,
    "MEAN_MOTION_DDOT": 0
  },
  {
    "OBJECT_NAME": "SMAP",
    "OBJECT_ID": "2015-003A",
    "EPOCH": "2025-05-24T20:09:44.904384",
    "MEAN_MOTION": 14.63389785,
    "ECCENTRICITY": 0.0001711,
    "INCLINATION": 98.1278,
    "RA_OF_ASC_NODE": 152.4102,
    "ARG_OF_PERICENTER": 99.1646,
    "MEAN_ANOMALY": 260.9749,
    "EPHEMERIS_TYPE": 0,
    "CLASSIFICATION_TYPE": "U",
    "NORAD_CAT_ID": 40376,
    "ELEMENT_SET_NO": 999,
    "REV_AT_EPOCH": 55082,
    "BSTAR": 9.9967e-05,
    "MEAN_MOTION_DOT": 4.7e-06,
    "MEAN_MOTION_DDOT": 0
  },
  {
    "OBJECT_NAME": "KOMPSAT-3A",
    "OBJECT_ID": "2015-014A",
    "EPOCH": "2025-05-24T20:51:18.681408",
    "MEAN_MOTION": 15.36466124,
    "ECCENTRICITY": 0.0005431,
    "INCLINATION": 97.6549,
    "RA_OF_ASC_NODE": 109.7934,
    "ARG_OF_PERICENTER": 128.6258,
    "MEAN_ANOMALY": 231.5472,
    "EPHEMERIS_TYPE": 0,
    "CLASSIFICATION_TYPE": "U",
    "NORAD_CAT_ID": 40536,
    "ELEMENT_SET_NO": 999,
    "REV_AT_EPOCH": 56191,
    "BSTAR": 0.00031192,
    "MEAN_MOTION_DOT": 0.0001102,
    "MEAN_MOTION_DDOT": 0
  },
  {
    "OBJECT_NAME": "SENTINEL-2A",
    "OBJECT_ID": "2015-028A",
    "EPOCH": "2025-05-24T19:45:15.175584",
    "MEAN_MOTION": 14.30815525,
    "ECCENTRICITY": 0.0001246,
    "INCLINATION": 98.5695,
    "RA_OF_ASC_NODE": 220.2357,
    "ARG_OF_PERICENTER": 98.6843,
    "MEAN_ANOMALY": 261.4481,
    "EPHEMERIS_TYPE": 0,
    "CLASSIFICATION_TYPE": "U",
    "NORAD_CAT_ID": 40697,
    "ELEMENT_SET_NO": 999,
    "REV_AT_EPOCH": 51819,
    "BSTAR": 5.7011e-05,
    "MEAN_MOTION_DOT": 1.06e-06,
    "MEAN_MOTION_DDOT": 0
  },
  {
    "OBJECT_NAME": "GAOFEN-8",
    "OBJECT_ID": "2015-030A",
    "EPOCH": "2025-05-24T19:58:14.071584",
    "MEAN_MOTION": 15.31691863,
    "ECCENTRICITY": 0.0013541,
    "INCLINATION": 97.6872,
    "RA_OF_ASC_NODE": 314.4143,
    "ARG_OF_PERICENTER": 135.0236,
    "MEAN_ANOMALY": 225.2104,
    "EPHEMERIS_TYPE": 0,
    "CLASSIFICATION_TYPE": "U",
    "NORAD_CAT_ID": 40701,
    "ELEMENT_SET_NO": 999,
    "REV_AT_EPOCH": 55174,
    "BSTAR": 0.00041848,
    "MEAN_MOTION_DOT": 0.00012767,
    "MEAN_MOTION_DDOT": 0
  },
  {
    "OBJECT_NAME": "CARBONITE 1 (CBNT-1)",
    "OBJECT_ID": "2015-032D",
    "EPOCH": "2025-05-24T20:34:39.580320",
    "MEAN_MOTION": 14.81715883,
    "ECCENTRICITY": 0.0016148,
    "INCLINATION": 97.6444,
    "RA_OF_ASC_NODE": 334.9413,
    "ARG_OF_PERICENTER": 124.9963,
    "MEAN_ANOMALY": 235.2769,
    "EPHEMERIS_TYPE": 0,
    "CLASSIFICATION_TYPE": "U",
    "NORAD_CAT_ID": 40718,
    "ELEMENT_SET_NO": 999,
    "REV_AT_EPOCH": 53180,
    "BSTAR": 0.00021849,
    "MEAN_MOTION_DOT": 1.675e-05,
    "MEAN_MOTION_DDOT": 0
  }
]