SKYSAT-B                
1 40072U 14037D   25144.79141810  .00001127  00000+0  13417-3 0  9994
2 40072  98.3423  78.3225 0007238  95.3922 264.8118 14.86483706588313
WORLDVIEW-3 (WV-3)      
1 40115U 14048A   25144.52260347  .00000924  00000+0  11369-3 0  9990
2 40115  97.8588 219.2155 0006461 147.3878 212.7737 14.85314881584221
GAOFEN-2                
1 40118U 14049A   25144.85097865  .00000862  00000+0  11963-3 0  9994
2 40118  98.0607 203.3771 0005642  52.5476 307.6248 14.80478494581783
YAOGAN-21               
1 40143U 14053A   25144.87239402  .00006453  00000+0  27297-3 0  9993
2 40143  97.2008 196.5312 0013396  70.5491 289.7192 15.23450003595847
YAOGAN-22               
1 40275U 14063A   25144.40986338  .00000002  00000+0  12809-3 0  9993
2 40275 100.7138 285.2625 0006112 350.8227   9.2771 13.15510989508693
ASNARO                  
1 40298U 14070A   25144.84275620  .00008740  00000+0  41614-3 0  9992
2 40298  97.3796 225.4829 0005099  99.7278 260.4533 15.19367154585051
YAOGAN-24               
1 40310U 14072A   25144.81822511  .00000695  00000+0  10793-3 0  9998
2 40310  98.0970 275.1657 0015437  75.2530 285.0389 14.76173265566440
CBERS 4                 
1 40336U 14079A   25144.86946599  .00000113  00000+0  53835-4 0  9991
2 40336  98.3541 209.4523 0001861  73.5212 286.6179 14.35502718548269
YAOGAN-26               
1 40362U 14088A   25144.86991634  .00010163  00000+0  32780-3 0  9991
2 40362  97.0640 153.8773 0006806  36.4605 323.7100 15.32312696579422
SMAP                    
1 40376U 15003A   25144.84010306  .00000470  00000+0  99967-4 0  9991
2 40376  98.1278 152.4102 0001711  99.1646 260.9749 14.63389785550828
KOMPSAT-3A              
1 40536U 15014A   25144.86896622  .00011020  00000+0  31192-3 0  9994
2 40536  97.6549 109.7934 0005431 128.6258 231.5472 15.36466124561912
SENTINEL-2A             
1 40697U 15028A   25144.82309231  .00000106  00000+0  57011-4 0  9990
2 40697  98.5695 220.2357 0001246  98.6843 261.4481 14.30815525518196
GAOFEN-8                
1 40701U 15030A   25144.83210731  .00012767  00000+0  41848-3 0  9992
2 40701  97.6872 314.4143 0013541 135.0236 225.2104 15.31691863551748
CARBONITE 1 (CBNT-1)    
1 40718U 15032D   25144.85740255  .00001675  00000+0  21849-3 0  9998
2 40718  97.6444 334.9413 0016148 124.9963 235.2769 14.81715883531804
